GALAXY 3C (G-3C)        
1 27445U 02030A   26155.60720097 -.00000141  00000+0  00000+0 0  9992
2 27445   3.6981  78.1438 0001947  28.6349 270.0137  1.00271868 46367
INTELSAT 906 (IS-906)   
1 27513U 02041A   26155.83149854  .00000024  00000+0  00000+0 0  9990
2 27513   5.7724  73.0704 0004705 355.8727 187.8119  1.00270294 86902
NIMIQ 2                 
1 27632U 02062A   26155.61286824 -.00000060  00000+0  00000+0 0  9991
2 27632   9.4172  57.0334 0005964  13.2727 294.1904  1.00272239 44051
USA 167                 
1 27691U 03008A   26155.24280872  .00000011  00000+0  00000+0 0  9998
2 27691  10.9357  43.5235 0004196 318.0423 216.7889  1.00274893  6646
USA 169 (MILSTAR-2 4)   
1 27711U 03012A   26155.53978319 -.00000234  00000+0  00000+0 0  9996
2 27711  12.3304  29.9439 0101355   8.7369 200.7710  1.00271653 32824
ASIASAT 4               
1 27718U 03014A   26155.60405019 -.00000211  00000+0  00000+0 0  9990
2 27718   4.6734  75.9007 0002856   2.7211 179.4146  1.00271182 45174
HELLAS-SAT 2            
1 27811U 03020A   26155.56303626 -.00000074  00000+0  00000+0 0  9994
2 27811   7.3233  68.0341 0002861   0.4101  17.2536  1.00272272 42726
THURAYA-2               
1 27825U 03026A   26155.75550181  .00000134  00000+0  00000+0 0  9992
2 27825   8.8223  32.0337 0003295   2.2103 174.9252  1.00271297 84229
OPTUS C1                
1 27831U 03028B   26155.56147660 -.00000141  00000+0  00000+0 0  9993
2 27831   6.8581  69.5618 0005889 359.8722 181.4218  1.00270898 52931
USA 170                 
1 27875U 03040A   26154.85698575  .00000134  00000+0  00000+0 0  9993
2 27875  10.4722  48.0737 0001951  25.2319 151.7571  1.00276751 32869
GALAXY 13 (HORIZONS-1)  
1 27954U 03044A   26155.63013883  .00000144  00000+0  00000+0 0  9996
2 27954   1.3878  84.0091 0002062 342.2108 263.6829  1.00271571 46446
YAMAL 202               
1 28089U 03053A   26155.54003168 -.00000069  00000+0  00000+0 0  9998
2 28089   6.3132  71.0883 0003327 345.7507 194.1344  1.00272711 82576
UFO 11 (USA 174)        
1 28117U 03057A   26155.78163529 -.00000096  00000+0  00000+0 0  9998
2 28117   8.9404  33.8921 0002385  38.3211 177.9265  1.00273601 82320
USA 176 (DSP 22)        
1 28158U 04004A   26155.55436955 -.00000289  00000+0  00000+0 0  9991
2 28158  12.0451  26.1634 0001181 314.0719  58.9584  1.00410252 32815
ABS-4 (MOBISAT-1)       
1 28184U 04007A   26155.83149854  .00000050  00000+0  00000+0 0  9998
2 28184   6.0116  72.1548 0005097 358.9670 182.4528  1.00270443 52216
INTELSAT 10-02          
1 28358U 04022A   26155.63617519  .00000001  00000+0  00000+0 0  9990
2 28358   0.0141 341.1636 0000127 105.7346  34.2013  1.00271631 80433
ANIK F2                 
1 28378U 04027A   26155.61404338 -.00000038  00000+0  00000+0 0  9999
2 28378   3.2541  79.6145 0004583   0.0055 283.3683  1.00272424 41131
AMC-15                  
1 28446U 04041A   26155.90075145 -.00000077  00000+0  00000+0 0  9996
2 28446   0.0220 316.0538 0002455 116.6797  39.8299  1.00271879 79189
NSS-10                  
1 28526U 05003A   26155.12972288 -.00000242  00000+0  00000+0 0  9996
2 28526   6.4169  70.6121 0003132   1.3829 189.8291  1.00270663 53023
INMARSAT 4-F1           
1 28628U 05009A   26155.88558472  .00000044  00000+0  00000+0 0  9992
2 28628   5.1512  42.7351 0002926  33.5062 314.0155  1.00272899 77542
DIRECTV 8               
1 28659U 05019A   26155.89789144  .00000013  00000+0  00000+0 0  9996
2 28659   0.0183 321.8863 0003154 113.1138  22.5344  1.00271383 76958
GALAXY 28 (G-28)        
1 28702U 05022A   26155.91609152 -.00000189  00000+0  00000+0 0  9997
2 28702   3.2666  79.0827 0003188   0.1133 116.8536  1.00269177 51857
THAICOM 4               
1 28786U 05028A   26155.94519903 -.00000350  00000+0  00000+0 0  9992
2 28786   0.2134  86.0976 0002101 347.1770 279.8898  1.00270984 52124
ANIK F1R                
1 28868U 05036A   26155.90031811 -.00000064  00000+0  00000+0 0  9997
2 28868   4.2810  76.7314 0004475   0.4549  32.9838  1.00272945 46338
SYRACUSE 3A             
1 28885U 05041B   26155.87853774  .00000140  00000+0  00000+0 0  9992
2 28885   4.6125  75.9863 0003187 335.1693 205.0884  1.00269366 75628
INMARSAT 4-F2           
1 28899U 05044A   26155.59348010 -.00000250  00000+0  00000+0 0  9994
2 28899   5.0782  43.7153 0003311  32.9925 173.4703  1.00271203 75396
METEOSAT-9 (MSG-2)      
1 28912U 05049B   26155.75621891  .00000133  00000+0  00000+0 0  9993
2 28912   9.3326  54.2885 0002326  39.0161 117.8525  1.00267492  6873
EUTELSAT 174A           
1 28924U 05052A   26155.88471804  .00000020  00000+0  00000+0 0  9996
2 28924   4.1880  76.6771 0006571 357.9266 311.2352  1.00269495 52201
ECHOSTAR 10             
1 28935U 06003A   26155.89953811 -.00000043  00000+0  00000+0 0  9995
2 28935   0.0176 336.5665 0001453  95.4646  34.9545  1.00272159 74349
SPAINSAT                
1 28945U 06007A   26155.38172611 -.00000205  00000+0  00000+0 0  9995
2 28945   0.5296  86.7697 0005095 345.0596 288.2305  1.00274039 74090
JCSAT-5A                
1 29045U 06010A   26155.87639801 -.00000315  00000+0  00000+0 0  9996
2 29045   1.0771  84.3554 0002191   2.3409 254.1753  1.00272519 73642
ASTRA 1KR               
1 29055U 06012A   26155.64016187  .00000131  00000+0  00000+0 0  9995
2 29055   0.4411  83.1961 0003698 349.8146  69.5309  1.00272926 45574
