OBJECT_NAME,OBJECT_ID,EPOCH,MEAN_MOTION,ECCENTRICITY,INCLINATION,RA_OF_ASC_NODE,ARG_OF_PERICENTER,MEAN_ANOMALY,EPHEMERIS_TYPE,CLASSIFICATION_TYPE,NORAD_CAT_ID,ELEMENT_SET_NO,REV_AT_EPOCH,BSTAR,MEAN_MOTION_DOT,MEAN_MOTION_DDOT
GALAXY 3C (G-3C),2002-030A,2026-06-04T14:34:22.163808,1.00271868,.00019479,3.6981,78.1438,28.6349,270.0137,0,U,27445,999,4636,0,-.141E-5,0
INTELSAT 906 (IS-906),2002-041A,2026-06-04T19:57:21.473856,1.00270294,.00047057,5.7724,73.0704,355.8727,187.8119,0,U,27513,999,8690,0,.24E-6,0
NIMIQ 2,2002-062A,2026-06-04T14:42:31.815936,1.00272239,.00059647,9.4172,57.0334,13.2727,294.1904,0,U,27632,999,4405,0,-.6E-6,0
USA 167,2003-008A,2026-06-04T05:49:38.673408,1.00274893,.00041963,10.9357,43.5235,318.0423,216.7889,0,U,27691,999,664,0,.11E-6,0
USA 169 (MILSTAR-2 4),2003-012A,2026-06-04T12:57:17.267616,1.00271653,.01013552,12.3304,29.9439,8.7369,200.7710,0,U,27711,999,3282,0,-.234E-5,0
ASIASAT 4,2003-014A,2026-06-04T14:29:49.936416,1.00271182,.00028567,4.6734,75.9007,2.7211,179.4146,0,U,27718,999,4517,0,-.211E-5,0
HELLAS-SAT 2,2003-020A,2026-06-04T13:30:46.332864,1.00272272,.00028617,7.3233,68.0341,0.4101,17.2536,0,U,27811,999,4272,0,-.74E-6,0
THURAYA-2,2003-026A,2026-06-04T18:07:55.356384,1.00271297,.0003295,8.8223,32.0337,2.2103,174.9252,0,U,27825,999,8422,0,.134E-5,0
OPTUS C1,2003-028B,2026-06-04T13:28:31.578240,1.00270898,.0005889,6.8581,69.5618,359.8722,181.4218,0,U,27831,999,5293,0,-.141E-5,0
USA 170,2003-040A,2026-06-03T20:34:03.568800,1.00276751,.0001951,10.4722,48.0737,25.2319,151.7571,0,U,27875,999,3286,0,.134E-5,0
GALAXY 13 (HORIZONS-1),2003-044A,2026-06-04T15:07:23.994912,1.00271571,.00020629,1.3878,84.0091,342.2108,263.6829,0,U,27954,999,4644,0,.144E-5,0
YAMAL 202,2003-053A,2026-06-04T12:57:38.737152,1.00272711,.00033275,6.3132,71.0883,345.7507,194.1344,0,U,28089,999,8257,0,-.69E-6,0
UFO 11 (USA 174),2003-057A,2026-06-04T18:45:33.289056,1.00273601,.00023858,8.9404,33.8921,38.3211,177.9265,0,U,28117,999,8232,0,-.96E-6,0
USA 176 (DSP 22),2004-004A,2026-06-04T13:18:17.529120,1.00410252,.00011815,12.0451,26.1634,314.0719,58.9584,0,U,28158,999,3281,0,-.289E-5,0
ABS-4 (MOBISAT-1),2004-007A,2026-06-04T19:57:21.473856,1.00270443,.00050976,6.0116,72.1548,358.9670,182.4528,0,U,28184,999,5221,0,.5E-6,0
INTELSAT 10-02,2004-022A,2026-06-04T15:16:05.536416,1.00271631,.00001271,0.0141,341.1636,105.7346,34.2013,0,U,28358,999,8043,0,.1E-7,0
ANIK F2,2004-027A,2026-06-04T14:44:13.348032,1.00272424,.00045833,3.2541,79.6145,0.0055,283.3683,0,U,28378,999,4113,0,-.38E-6,0
AMC-15,2004-041A,2026-06-04T21:37:04.925280,1.00271879,.00024552,0.0220,316.0538,116.6797,39.8299,0,U,28446,999,7918,0,-.77E-6,0
NSS-10,2005-003A,2026-06-04T03:06:48.056832,1.00270663,.0003132,6.4169,70.6121,1.3829,189.8291,0,U,28526,999,5302,0,-.242E-5,0
INMARSAT 4-F1,2005-009A,2026-06-04T21:15:14.519808,1.00272899,.00029268,5.1512,42.7351,33.5062,314.0155,0,U,28628,999,7754,0,.44E-6,0
DIRECTV 8,2005-019A,2026-06-04T21:32:57.820416,1.00271383,.00031548,0.0183,321.8863,113.1138,22.5344,0,U,28659,999,7695,0,.13E-6,0
GALAXY 28 (G-28),2005-022A,2026-06-04T21:59:10.307328,1.00269177,.00031883,3.2666,79.0827,0.1133,116.8536,0,U,28702,999,5185,0,-.189E-5,0
THAICOM 4,2005-028A,2026-06-04T22:41:05.196192,1.00270984,.00021019,0.2134,86.0976,347.1770,279.8898,0,U,28786,999,5212,0,-.35E-5,0
ANIK F1R,2005-036A,2026-06-04T21:36:27.484704,1.00272945,.00044759,4.2810,76.7314,0.4549,32.9838,0,U,28868,999,4633,0,-.64E-6,0
SYRACUSE 3A,2005-041B,2026-06-04T21:05:05.660736,1.00269366,.0003187,4.6125,75.9863,335.1693,205.0884,0,U,28885,999,7562,0,.14E-5,0
INMARSAT 4-F2,2005-044A,2026-06-04T14:14:36.680640,1.00271203,.00033115,5.0782,43.7153,32.9925,173.4703,0,U,28899,999,7539,0,-.25E-5,0
METEOSAT-9 (MSG-2),2005-049B,2026-06-04T18:08:57.313824,1.00267492,.00023266,9.3326,54.2885,39.0161,117.8525,0,U,28912,999,687,0,.133E-5,0
EUTELSAT 174A,2005-052A,2026-06-04T21:13:59.638656,1.00269495,.0006571,4.1880,76.6771,357.9266,311.2352,0,U,28924,999,5220,0,.2E-6,0
ECHOSTAR 10,2006-003A,2026-06-04T21:35:20.092704,1.00272159,.00014533,0.0176,336.5665,95.4646,34.9545,0,U,28935,999,7434,0,-.43E-6,0
SPAINSAT,2006-007A,2026-06-04T09:09:41.135904,1.00274039,.00050953,0.5296,86.7697,345.0596,288.2305,0,U,28945,999,7409,0,-.205E-5,0
JCSAT-5A,2006-010A,2026-06-04T21:02:00.788064,1.00272519,.00021912,1.0771,84.3554,2.3409,254.1753,0,U,29045,999,7364,0,-.315E-5,0
ASTRA 1KR,2006-012A,2026-06-04T15:21:49.985568,1.00272926,.00036987,0.4411,83.1961,349.8146,69.5309,0,U,29055,999,4557,0,.131E-5,0
